     2.100          NAVIGATION                              RINEX VERSION / TYPE
fic2rin                                 03/10/2018 00:38:33 PGM / RUN BY / DATE
                                                            END OF HEADER
10 18  3  9  1 59 44.0  .168205704540D-03  .397903932026D-11  .000000000000D+00
     .320000000000D+02 -.154687500000D+02  .460697761340D-08 -.102368361882D+01
    -.903382897377D-06  .335026381072D-02  .727549195290D-05  .515366104698D+04
     .439184000000D+06  .113621354103D-06 -.207124778070D+00 -.968575477600D-07
     .961189982107D+00  .241187500000D+03 -.280054843831D+01 -.802069123684D-08
    -.517878714584D-10  .100000000000D+01  .199100000000D+04  .000000000000D+00
     .240000000000D+01  .000000000000D+00  .186264514923D-08  .320000000000D+02
     .432006000000D+06  .400000000000D+01
11 18  3  9  1 59 44.0 -.737199559808D-03 -.341060513165D-12  .000000000000D+00
     .280000000000D+02 -.447187500000D+02  .600953603558D-08  .328032877052D+00
    -.225007534027D-05  .167175413808D-01  .786967575550D-05  .515361861229D+04
     .439184000000D+06 -.182539224625D-06 -.166834663893D+01 -.108033418655D-06
     .904124927175D+00  .202968750000D+03  .174279263381D+01 -.907502086819D-08
     .532165023952D-10  .100000000000D+01  .199100000000D+04  .000000000000D+00
     .240000000000D+01  .000000000000D+00 -.121071934700D-07  .280000000000D+02
     .432006000000D+06  .400000000000D+01
13 18  3  9  1 59 44.0 -.955630093813D-04  .113686837722D-12  .000000000000D+00
     .220000000000D+02  .161562500000D+02  .423981946264D-08  .179109766067D+01
     .854954123497D-06  .363206560723D-02  .876374542713D-05  .515365987206D+04
     .439184000000D+06  .651925802231D-07  .960844911916D+00 -.391155481339D-07
     .968699782829D+00  .215218750000D+03  .161605744246D+01 -.787032783074D-08
    -.100361323309D-09  .100000000000D+01  .199100000000D+04  .000000000000D+00
     .240000000000D+01  .000000000000D+00 -.111758708954D-07  .220000000000D+02
     .432006000000D+06  .400000000000D+01
16 18  3  9  1 59 44.0  .306940637529D-04 -.909494701773D-12  .000000000000D+00
     .190000000000D+02  .113750000000D+02  .413445793105D-08 -.212999027163D+01
     .286847352982D-06  .996584363747D-02  .489503145218D-05  .515359601784D+04
     .439184000000D+06  .726431608200D-07  .301825008337D+01 -.156462192535D-06
     .987931507244D+00  .299000000000D+03  .479070673571D+00 -.797247494273D-08
     .132505519387D-09  .100000000000D+01  .199100000000D+04  .000000000000D+00
     .240000000000D+01  .000000000000D+00 -.107102096081D-07  .190000000000D+02
     .432006000000D+06  .400000000000D+01
20 18  3  9  1 59 44.0  .502685084939D-03  .909494701773D-12  .000000000000D+00
     .270000000000D+02 -.139062500000D+02  .544486965782D-08  .202693432142D+01
    -.767409801483D-06  .438625528477D-02  .640936195850D-05  .515378884888D+04
     .439184000000D+06  .104308128357D-06 -.310447501625D+00 -.372529029846D-08
     .928327300513D+00  .237156250000D+03  .180429237568D+01 -.844249452093D-08
    -.121433629627D-10  .100000000000D+01  .199100000000D+04  .000000000000D+00
     .240000000000D+01  .630000000000D+02 -.838190317154D-08  .270000000000D+02
     .432006000000D+06  .400000000000D+01
 1 18  3  9  2  0  0.0 -.330256298184D-04 -.227373675443D-11  .000000000000D+00
     .109000000000D+03 -.317812500000D+02  .440661212451D-08  .105486884393D+01
    -.143237411976D-05  .741499476135D-02  .818632543087D-05  .515367467880D+04
     .439200000000D+06  .186264514923D-07 -.124650868826D+01  .121071934700D-06
     .970143955076D+00  .226468750000D+03  .610124134302D+00 -.805962142987D-08
     .632169189527D-10  .100000000000D+01  .199100000000D+04  .000000000000D+00
     .485000000000D+01  .000000000000D+00  .558793544769D-08  .109000000000D+03
     .432006000000D+06  .400000000000D+01
 2 18  3  9  2  0  0.0  .179639551789D-03 -.108002495836D-10  .000000000000D+00
     .840000000000D+02 -.347812500000D+02  .480198573627D-08  .142261338565D+01
    -.208057463169D-05  .178600174841D-01  .850856304169D-05  .515369647789D+04
     .439200000000D+06 -.353902578354D-06 -.130597416208D+01 -.301748514175D-06
     .949171880407D+00  .216500000000D+03 -.188359911336D+01 -.831070331701D-08
     .746459664470D-10  .100000000000D+01  .199100000000D+04  .000000000000D+00
     .240000000000D+01  .000000000000D+00 -.204890966415D-07  .840000000000D+02
     .432006000000D+06  .400000000000D+01
 3 18  3  9  2  0  0.0  .245980918407D-04  .807176547823D-11  .000000000000D+00
     .300000000000D+02 -.140312500000D+02  .468269505304D-08  .197213568062D+00
    -.782310962677D-06  .121152924839D-02  .735372304916D-05  .515354055214D+04
     .439200000000D+06  .316649675369D-07 -.203627037495D+00 -.372529029846D-08
     .961080716755D+00  .236250000000D+03  .442976533214D+00 -.810248035797D-08
     .103575742917D-10  .100000000000D+01  .199100000000D+04  .000000000000D+00
     .240000000000D+01  .000000000000D+00  .232830643654D-08  .300000000000D+02
     .432006000000D+06  .400000000000D+01
 4 18  3  9  2  0  0.0  .434974208474D-04  .284217094304D-11  .000000000000D+00
     .200000000000D+02  .164062500000D+02  .553523056457D-08 -.182689635741D+01
     .778585672379D-06  .968311738688D-02  .444613397121D-05  .515368127823D+04
     .439200000000D+06  .124797224998D-06  .296517635758D+01 -.726431608200D-07
     .979987319331D+00  .299968750000D+03  .899506117366D+00 -.801497671309D-08
     .111076055335D-09  .100000000000D+01  .199100000000D+04  .000000000000D+00
     .485000000000D+01  .630000000000D+02 -.195577740669D-07  .200000000000D+02
     .432006000000D+06  .400000000000D+01
 5 18  3  9  2  0  0.0 -.125463120639D-04  .909494701773D-12  .000000000000D+00
     .830000000000D+02 -.959375000000D+01  .491449042254D-08 -.225203813155D+01
    -.510364770889D-06  .528048316482D-02  .709109008312D-05  .515365374756D+04
     .439200000000D+06  .260770320892D-07 -.224345831304D+00 -.335276126862D-07
     .947976288663D+00  .236906250000D+03  .619576249895D+00 -.816962601200D-08
     .535736601294D-10  .100000000000D+01  .199100000000D+04  .000000000000D+00
     .240000000000D+01  .000000000000D+00 -.107102096081D-07  .830000000000D+02
     .432006000000D+06  .400000000000D+01
 6 18  3  9  2  0  0.0  .413135159761D-03 -.909494701773D-12  .000000000000D+00
     .550000000000D+02 -.305000000000D+02  .427446376286D-08  .128662246083D+01
    -.171177089214D-05  .117604259867D-02  .791624188423D-05  .515358695793D+04
     .439200000000D+06  .931322574615D-08 -.125484500259D+01 -.428408384323D-07
     .969872535496D+00  .231250000000D+03 -.120415369447D+01 -.793211611876D-08
     .753602819154D-10  .100000000000D+01  .199100000000D+04  .000000000000D+00
     .240000000000D+01  .000000000000D+00  .465661287308D-08  .550000000000D+02
     .432006000000D+06  .400000000000D+01
 7 18  3  9  2  0  0.0  .225892290473D-03 -.568434188608D-11  .000000000000D+00
     .370000000000D+02  .527812500000D+02  .458983404215D-08  .362817471661D+00
     .287033617496D-05  .112279551104D-01  .775977969170D-05  .515368551064D+04
     .439200000000D+06  .372529029846D-08  .190863889319D+01  .229105353355D-06
     .959046738363D+00  .230343750000D+03 -.254287093728D+01 -.822284251440D-08
     .128576784311D-10  .100000000000D+01  .199100000000D+04  .000000000000D+00
     .240000000000D+01  .000000000000D+00 -.111758708954D-07  .370000000000D+02
     .432006000000D+06  .400000000000D+01
 8 18  3  9  2  0  0.0 -.937189906836D-04 -.125055521494D-11  .000000000000D+00
     .270000000000D+02 -.500000000000D+02  .442518432669D-08 -.270956058357D+01
    -.249408185482D-05  .339467136655D-02  .654533505440D-05  .515377797699D+04
     .439200000000D+06 -.149011611938D-07 -.231122386032D+01  .502914190292D-07
     .968812227101D+00  .258687500000D+03 -.515920512057D+00 -.803426323074D-08
    -.496449250533D-10  .100000000000D+01  .199100000000D+04  .000000000000D+00
     .240000000000D+01  .000000000000D+00  .558793544769D-08  .270000000000D+02
     .432006000000D+06  .400000000000D+01
 9 18  3  9  2  0  0.0  .505597330630D-03  .216004991671D-11  .000000000000D+00
     .108000000000D+03  .387500000000D+01  .465269380337D-08 -.284026091636D+01
     .262632966042D-06  .112728297245D-02  .867247581482D-05  .515366771317D+04
     .439200000000D+06 -.149011611938D-07  .830336099974D+00 -.707805156708D-07
     .952985169486D+00  .209406250000D+03  .177896740289D+01 -.803604901941D-08
    -.209651589973D-09  .100000000000D+01  .199100000000D+04  .000000000000D+00
     .240000000000D+01  .000000000000D+00  .139698386192D-08  .108000000000D+03
     .432006000000D+06  .400000000000D+01
12 18  3  9  2  0  0.0  .346383545548D-03 -.204636307899D-11  .000000000000D+00
     .870000000000D+02  .103125000000D+02  .420981821297D-08 -.224621503587D+00
     .607222318649D-06  .705584278330D-02  .510364770889D-05  .515363027763D+04
     .439200000000D+06  .335276126862D-07  .299936640472D+01  .782310962677D-07
     .987487137100D+00  .300312500000D+03  .931909767451D+00 -.809069415274D-08
     .103575742917D-10  .100000000000D+01  .199100000000D+04  .000000000000D+00
     .240000000000D+01  .000000000000D+00 -.125728547573D-07  .870000000000D+02
     .432006000000D+06  .400000000000D+01
14 18  3  9  2  0  0.0 -.949027016759D-04 -.454747350886D-12  .000000000000D+00
     .590000000000D+02  .158125000000D+02  .428910722996D-08  .288571077040D+01
     .786036252975D-06  .942890683655D-02  .924989581108D-05  .515374348640D+04
     .439200000000D+06  .875443220139D-07  .919478552315D+00 -.707805156708D-07
     .961272843250D+00  .199781250000D+03 -.195734009290D+01 -.770067790700D-08
    -.155720772109D-09  .100000000000D+01  .199100000000D+04  .000000000000D+00
     .240000000000D+01  .000000000000D+00 -.977888703346D-08  .590000000000D+02
     .432006000000D+06  .400000000000D+01
